{
  "type": "FeatureCollection",
  "features": [
    {
      "type": "Feature",
      "properties": {
        "norad_id": 38755,
        "name": "SPOT 6",
        "group": "resource",
        "lat": 39.938333052964,
        "lon": 58.235125468506205,
        "alt_km": 694.0767248637985,
        "timestamp": "2025-12-26T14:28:47.346028+00:00",
        "meta_object_name": "SPOT 6",
        "meta_object_id": "2012-047A",
        "meta_epoch": "2025-12-26T07:42:33.420096",
        "meta_mean_motion": 14.58544646,
        "meta_eccentricity": 0.0001231,
        "meta_inclination": 98.155,
        "meta_ra_of_asc_node": 64.8539,
        "meta_arg_of_pericenter": 77.8409,
        "meta_mean_anomaly": 282.2928,
        "meta_ephemeris_type": 0,
        "meta_classification_type": "U",
        "meta_norad_cat_id": 38755,
        "meta_element_set_no": 999,
        "meta_rev_at_epoch": 70785,
        "meta_bstar": 0.00013049826,
        "meta_mean_motion_dot": 5.61e-06,
        "meta_mean_motion_ddot": 0,
        "tle_line1": "1 38755U 12047A   25360.32122014  .00000561  00000+0  13050-3 0  9996",
        "tle_line2": "2 38755  98.1550  64.8539 0001231  77.8409 282.2928 14.58544646707852"
      },
      "geometry": {
        "type": "Point",
        "coordinates": [
          58.235125468506205,
          39.938333052964
        ]
      }
    },
    {
      "type": "Feature",
      "properties": {
        "norad_id": 39019,
        "name": "PLEIADES 1B",
        "group": "resource",
        "lat": -59.979912399417444,
        "lon": 87.44504526564616,
        "alt_km": 705.6147044479403,
        "timestamp": "2025-12-26T14:28:47.346038+00:00",
        "meta_object_name": "PLEIADES 1B",
        "meta_object_id": "2012-068A",
        "meta_epoch": "2025-12-26T06:31:37.246368",
        "meta_mean_motion": 14.58565258,
        "meta_eccentricity": 0.0001136,
        "meta_inclination": 98.1775,
        "meta_ra_of_asc_node": 72.7089,
        "meta_arg_of_pericenter": 86.575,
        "meta_mean_anomaly": 273.5579,
        "meta_ephemeris_type": 0,
        "meta_classification_type": "U",
        "meta_norad_cat_id": 39019,
        "meta_element_set_no": 999,
        "meta_rev_at_epoch": 69564,
        "meta_bstar": 0.00011171698,
        "meta_mean_motion_dot": 4.74e-06,
        "meta_mean_motion_ddot": 0,
        "tle_line1": "1 39019U 12068A   25360.27195887  .00000474  00000+0  11172-3 0  9991",
        "tle_line2": "2 39019  98.1775  72.7089 0001136  86.5750 273.5579 14.58565258695643"
      },
      "geometry": {
        "type": "Point",
        "coordinates": [
          87.44504526564616,
          -59.979912399417444
        ]
      }
    },
    {
      "type": "Feature",
      "properties": {
        "norad_id": 39030,
        "name": "GOKTURK 2",
        "group": "resource",
        "lat": -82.10454623722103,
        "lon": -55.36498373516614,
        "alt_km": 652.519516056208,
        "timestamp": "2025-12-26T14:28:47.346048+00:00",
        "meta_object_name": "GOKTURK 2",
        "meta_object_id": "2012-073A",
        "meta_epoch": "2025-12-26T06:45:23.840352",
        "meta_mean_motion": 14.75310241,
        "meta_eccentricity": 0.00014749,
        "meta_inclination": 97.6886,
        "meta_ra_of_asc_node": 201.2687,
        "meta_arg_of_pericenter": 106.039,
        "meta_mean_anomaly": 254.0983,
        "meta_ephemeris_type": 0,
        "meta_classification_type": "U",
        "meta_norad_cat_id": 39030,
        "meta_element_set_no": 999,
        "meta_rev_at_epoch": 69901,
        "meta_bstar": 0.00013684208,
        "meta_mean_motion_dot": 8.8e-06,
        "meta_mean_motion_ddot": 0,
        "tle_line1": "1 39030U 12073A   25360.28152593  .00000880  00000+0  13684-3 0  9999",
        "tle_line2": "2 39030  97.6886 201.2687 0001474 106.0390 254.0983 14.75310241699016"
      },
      "geometry": {
        "type": "Point",
        "coordinates": [
          -55.36498373516614,
          -82.10454623722103
        ]
      }
    },
    {
      "type": "Feature",
      "properties": {
        "norad_id": 39084,
        "name": "LANDSAT 8",
        "group": "resource",
        "lat": 36.528825928730754,
        "lon": 62.335227063846055,
        "alt_km": 699.5075639729548,
        "timestamp": "2025-12-26T14:28:47.346058+00:00",
        "meta_object_name": "LANDSAT 8",
        "meta_object_id": "2013-008A",
        "meta_epoch": "2025-12-26T06:04:13.437984",
        "meta_mean_motion": 14.57115874,
        "meta_eccentricity": 0.00010484,
        "meta_inclination": 98.2055,
        "meta_ra_of_asc_node": 68.1259,
        "meta_arg_of_pericenter": 93.5566,
        "meta_mean_anomaly": 266.5752,
        "meta_ephemeris_type": 0,
        "meta_classification_type": "U",
        "meta_norad_cat_id": 39084,
        "meta_element_set_no": 999,
        "meta_rev_at_epoch": 67271,
        "meta_bstar": 0.00010638914,
        "meta_mean_motion_dot": 4.34e-06,
        "meta_mean_motion_ddot": 0,
        "tle_line1": "1 39084U 13008A   25360.25293331  .00000434  00000+0  10639-3 0  9992",
        "tle_line2": "2 39084  98.2055  68.1259 0001048  93.5566 266.5752 14.57115874672712"
      },
      "geometry": {
        "type": "Point",
        "coordinates": [
          62.335227063846055,
          36.528825928730754
        ]
      }
    },
    {
      "type": "Feature",
      "properties": {
        "norad_id": 39086,
        "name": "SARAL",
        "group": "resource",
        "lat": -67.74032388244007,
        "lon": -17.212869404098996,
        "alt_km": 791.8116066938983,
        "timestamp": "2025-12-26T14:28:47.346069+00:00",
        "meta_object_name": "SARAL",
        "meta_object_id": "2013-009A",
        "meta_epoch": "2025-12-26T06:36:56.111616",
        "meta_mean_motion": 14.3276166,
        "meta_eccentricity": 0.0002956,
        "meta_inclination": 98.5504,
        "meta_ra_of_asc_node": 184.0294,
        "meta_arg_of_pericenter": 83.225,
        "meta_mean_anomaly": 276.9271,
        "meta_ephemeris_type": 0,
        "meta_classification_type": "U",
        "meta_norad_cat_id": 39086,
        "meta_element_set_no": 999,
        "meta_rev_at_epoch": 67084,
        "meta_bstar": 6.5496021e-05,
        "meta_mean_motion_dot": 1.35e-06,
        "meta_mean_motion_ddot": 0,
        "tle_line1": "1 39086U 13009A   25360.27564944  .00000135  00000+0  65496-4 0  9998",
        "tle_line2": "2 39086  98.5504 184.0294 0002956  83.2250 276.9271 14.32761660670844"
      },
      "geometry": {
        "type": "Point",
        "coordinates": [
          -17.212869404098996,
          -67.74032388244007
        ]
      }
    },
    {
      "type": "Feature",
      "properties": {
        "norad_id": 39150,
        "name": "GAOFEN-1",
        "group": "resource",
        "lat": 46.2704696048391,
        "lon": 62.636849814973694,
        "alt_km": 628.6903745892696,
        "timestamp": "2025-12-26T14:28:47.346079+00:00",
        "meta_object_name": "GAOFEN-1",
        "meta_object_id": "2013-018A",
        "meta_epoch": "2025-12-26T06:08:10.567968",
        "meta_mean_motion": 14.76503966,
        "meta_eccentricity": 0.00185618,
        "meta_inclination": 97.9307,
        "meta_ra_of_asc_node": 70.6747,
        "meta_arg_of_pericenter": 102.1132,
        "meta_mean_anomaly": 258.2159,
        "meta_ephemeris_type": 0,
        "meta_classification_type": "U",
        "meta_norad_cat_id": 39150,
        "meta_element_set_no": 999,
        "meta_rev_at_epoch": 68272,
        "meta_bstar": 0.00014946539,
        "meta_mean_motion_dot": 9.93e-06,
        "meta_mean_motion_ddot": 0,
        "tle_line1": "1 39150U 13018A   25360.25567787  .00000993  00000+0  14947-3 0  9992",
        "tle_line2": "2 39150  97.9307  70.6747 0018561 102.1132 258.2159 14.76503966682721"
      },
      "geometry": {
        "type": "Point",
        "coordinates": [
          62.636849814973694,
          46.2704696048391
        ]
      }
    },
    {
      "type": "Feature",
      "properties": {
        "norad_id": 39160,
        "name": "VNREDSAT 1",
        "group": "resource",
        "lat": -70.70722936488049,
        "lon": -148.09034799455796,
        "alt_km": 685.3579786348937,
        "timestamp": "2025-12-26T14:28:47.346089+00:00",
        "meta_object_name": "VNREDSAT 1",
        "meta_object_id": "2013-021B",
        "meta_epoch": "2025-12-26T06:46:27.844608",
        "meta_mean_motion": 14.64943236,
        "meta_eccentricity": 0.00011706,
        "meta_inclination": 97.9351,
        "meta_ra_of_asc_node": 55.0812,
        "meta_arg_of_pericenter": 82.9902,
        "meta_mean_anomaly": 277.1435,
        "meta_ephemeris_type": 0,
        "meta_classification_type": "U",
        "meta_norad_cat_id": 39160,
        "meta_element_set_no": 999,
        "meta_rev_at_epoch": 67497,
        "meta_bstar": 0.00018100471,
        "meta_mean_motion_dot": 9.23e-06,
        "meta_mean_motion_ddot": 0,
        "tle_line1": "1 39160U 13021B   25360.28226672  .00000923  00000+0  18100-3 0  9993",
        "tle_line2": "2 39160  97.9351  55.0812 0001170  82.9902 277.1435 14.64943236674979"
      },
      "geometry": {
        "type": "Point",
        "coordinates": [
          -148.09034799455796,
          -70.70722936488049
        ]
      }
    }
  ]
}